OBJECTID,Index,Business_S,Closed_in,Info_USA_v,Temporaril,Data_Axle,Data_Axl_1,closed_dat,NAICS,latitude_i,postal_cod,longitude_,name_infoU,street_inf,Yelp,Bing,YP,DataAxle,Google,infogroup_,F2017_NAICS,F2017_NAI_1,F2_digit_NA,Industry,Google_Sta
144,61171,Open, ,4/1/2020, ,200,532208626, ,62221001,42.34603,2118,-71.064091,massachusetts behavioral health partnership,1000 Washington St,N,N,N,Y,N,532208626,622210,Psychiatric and Substance Abuse Hospitals,62,Health Care and Social Assistance, 
238,106943,Open, ,4/1/2020, ,200,854085560, ,92615004,42.34592,2118,-71.064771,division of insurance,1000 Washington St,N,Y,N,Y,N,854085560,926150,"Regulation, Licensing, and Inspection of Miscellaneous Commercial Sectors",92,Public Administration, 
324,137834,Open, ,1/11/2019, ,176,1847961, ,92615004,42.34592,2118,-71.064771,banks division,1000 Washington St,N,Y,N,Y,N,1847961,926150,"Regulation, Licensing, and Inspection of Miscellaneous Commercial Sectors",92,Public Administration, 
145,61556,Open, ,3/1/2021, ,140,417194881, ,52211002,42.34592,2118,-71.064771,mass division of banks,1000 Washington St,N,Y,N,Y,N,417194881,522110,Commercial Banking,52,Finance and Insurance, 
31,9987,Permanently Closed, ,4/1/2021, ,100,429813009, ,33131805,42.342448,2118,-71.067265,united states monorail corp,1234 Washington St,N,Y,N,Y,N,429813009,331318,"Other Aluminum Rolling, Drawing, and Extruding",33,Manufacturing, 
59,21518,Open, ,4/1/2021, ,100,429813025, ,33599903,42.342448,2118,-71.067265,stanspec,1234 Washington St,N,N,N,Y,N,429813025,335999,All Other Miscellaneous Electrical Equipment and Component Manufacturing,33,Manufacturing, 
143,60618,Open, ,1/15/2021, ,100,426619688, ,92615004,42.34603,2118,-71.064091,massachusetts professional licensing,1000 Washington St,N,N,N,Y,N,426619688,926150,"Regulation, Licensing, and Inspection of Miscellaneous Commercial Sectors",92,Public Administration, 
146,61605,Open, ,4/1/2021, ,100,433274063, ,92119006,42.34603,2118,-71.064091,mass commonwealth insurance,1000 Washington St,N,N,N,Y,N,433274063,921190,Other General Government Support,92,Public Administration, 
231,104434,Open, ,3/9/2021, ,100,307662254, ,23821007,42.3398,2118,-71.0735,e g leon & co,471 Harrison Ave,N,N,N,Y,N,307662254,238210,Electrical Contractors and Other Wiring Installation Contractors,23,Construction, 
349,144316,Open, ,4/13/2021, ,100,429813017, ,42383010,42.342448,2118,-71.067265,american crane & hoist inc,1234 Washington St,N,N,N,Y,N,429813017,423830,Industrial Machinery and Equipment Merchant Wholesalers,42,Wholesale Trade, 
33,10406,Open, ,4/1/2020, ,60,415568661, ,45439007,42.34592,2118,-71.064771,unidine corp,1000 Washington St,N,N,N,Y,N,415568661,454390,Other Direct Selling Establishments,45,Retail Trade, 
96,36373,Open, ,12/23/2020, ,60,238831473, ,54182004,42.341858,2118,-71.069429,"racepoint global, inc",46 Waltham St,N,N,N,Y,N,238831473,541820,Public Relations Agencies,54,"Professional, Scientific, and Technical Services", 
228,102401,Open, ,4/2/2021, ,60,418335337, ,72251117,42.341227,2118,-71.070531,elephant walk south end,1415 Washington St,Y,Y,N,Y,N,418335337,722511,Full-Service Restaurants,72,Accommodation and Food Services, 
1,280,Open, ,4/1/2021, ,55,740967126, ,54131001,42.341858,2118,-71.069429,zeybekoglu & associates,46 Waltham St,N,N,N,Y,N,740967126,541310,Architectural Services,54,"Professional, Scientific, and Technical Services", 
135,56297,Open, ,4/1/2021, ,50,400102448, ,44511003,42.344166,2118,-71.065529,ming's supermarket,1102 Washington St,Y,Y,N,Y,N,400102448,445110,Supermarkets and Other Grocery (except Convenience) Stores,44,Retail Trade, 
281,124675,Open, ,4/1/2021, ,50,685070203, ,44511003,42.346182,2118,-71.065099,c mart of herald st,50 Herald St,N,Y,N,Y,N,685070203,445110,Supermarkets and Other Grocery (except Convenience) Stores,44,Retail Trade, 
253,114472,Open, ,4/1/2020, ,48,532097524, ,54181001,42.341858,2118,-71.069429,connelly partners,46 Waltham St,N,N,N,Y,N,532097524,541810,Advertising Agencies,54,"Professional, Scientific, and Technical Services", 
210,95232,Open, ,3/30/2021, ,45,987504909, ,44511003,42.341176,2118,-71.070838,foodie's urban market,1421 Washington St,Y,Y,N,Y,N,987504909,445110,Supermarkets and Other Grocery (except Convenience) Stores,44,Retail Trade, 
294,128553,Open, ,8/20/2020, ,45,401459421, ,61131001,42.3398,2118,-71.0735,boston university dental school,635 Albany St,N,N,N,Y,N,401459421,611310,"Colleges, Universities, and Professional Schools",61,Educational Services, 
338,140830,Open, ,4/17/2021, ,40,663418762, ,32212103,42.3398,2118,-71.0735,asian american civic association,87 Taylor St,N,N,N,Y,N,663418762,322121,Paper (except Newsprint) Mills,32,Manufacturing, 
187,83243,Open, ,6/1/2007, ,35,643441066, ,62431009,42.343157,2118,-71.065541,hope house inc,35 Fay St,N,Y,N,Y,Y,643441066,624310,Vocational Rehabilitation Services,62,Health Care and Social Assistance,OPERATIONAL
48,15392,Open, ,1/25/2021, ,30,404271530, ,72251117,42.341371,2118,-71.070211,the gallows,1395 Washington St,Y,Y,N,Y,N,404271530,722511,Full-Service Restaurants,72,Accommodation and Food Services, 
94,34154,Open, ,2/9/2021, ,30,722251870, ,72111002,42.333469,2119,-71.081055,residence inn boston downtown/south end,2001 Washington St,N,Y,N,Y,N,722251870,721110,Hotels (except Casino Hotels) and Motels,72,Accommodation and Food Services, 
125,53037,Open, ,4/20/2021, ,30,409273037, ,54131006,42.33425,2118,-71.079258,nadaaa inc,1920 Washington St,N,Y,N,Y,N,409273037,541310,Architectural Services,54,"Professional, Scientific, and Technical Services", 
211,95587,Temporarily Closed, ,3/28/2021, ,30,564735090, ,31181102,42.33836,2118,-71.074821,flour bakery,1595 Washington St,Y,Y,N,Y,N,564735090,311811,Retail Bakeries,31,Manufacturing, 
250,113916,Open, ,4/1/2021, ,30,1783315, ,62441003,42.334862,2118,-71.079037,cooper community center,1891 Washington St,N,N,N,Y,N,1783315,624410,Child Day Care Services,62,Health Care and Social Assistance, 
38,12960,Open, ,4/29/2021, ,29,746634794, ,52399903,42.341858,2118,-71.069429,tr engel group,46 Waltham St,N,N,N,Y,N,746634794,523999,Miscellaneous Financial Investment Activities,52,Finance and Insurance, 
359,150645,Open, ,4/1/2010, ,26,483778304, ,42441005,42.346182,2118,-71.065099,88 supermarket,50 Herald St,N,Y,N,Y,Y,483778304,424410,General Line Grocery Merchant Wholesalers,42,Wholesale Trade,OPERATIONAL
2,706,Open, ,9/1/2020, ,25,634931968, ,62411006,42.3398,2118,-71.0735,youth build boston designery,1884 Washington St,N,N,N,Y,N,634931968,624110,Child and Youth Services,62,Health Care and Social Assistance, 
192,85756,Open, ,3/29/2021, ,25,416818331, ,62441003,42.334862,2118,-71.079037,hattie b cooper commumnity center,1891 Washington St,N,N,N,Y,N,416818331,624410,Child Day Care Services,62,Health Care and Social Assistance, 
345,142968,Open, ,4/30/2021, ,25,392569760, ,99999005,42.337655,2118,-71.074928,anna bissonnette house,1640 Washington St,N,Y,N,Y,N,392569760,0, ,0,UnclassIfied Business Types, 
65,23198,Open, ,4/1/2021, ,24,754745069, ,62311006,42.338291,2118,-71.074921,"south end community health center, inc",1601 Washington St,Y,Y,N,Y,N,754745069,623110,Nursing Care Facilities (Skilled Nursing Facilities),62,Health Care and Social Assistance, 
109,42061,Open, ,11/1/2018, ,23,719031552, ,45399878,42.3398,2118,-71.0735,perrotine,46 Waltham St Courtyard 5,N,N,N,Y,N,719031552,453998,All Other Miscellaneous Store Retailers (except Tobacco Stores),45,Retail Trade, 
256,115647,Open, ,3/5/2020, ,23,901202382, ,62419012,42.337655,2118,-71.074928,committee to end elder,1640 Washington St,N,Y,N,Y,N,901202382,624190,Other Individual and Family Services,62,Health Care and Social Assistance, 
282,124833,Open, ,11/1/2018, ,23,723367236, ,45399878,42.3398,2118,-71.0735,c & l retail llc,460 Harrison Avenue Gallery C2,N,N,N,Y,N,723367236,453998,All Other Miscellaneous Store Retailers (except Tobacco Stores),45,Retail Trade, 
19,5720,Open, ,4/1/2021, ,21,564734796, ,44611009,42.338253,2118,-71.074959,walgreens,1603 Washington St,Y,Y,N,Y,N,564734796,446110,Pharmacies and Drug Stores,44,Retail Trade, 
182,79259,Open, ,2/3/2021, ,21,465585321, ,81341004,42.343866,2118,-71.066329,interseminarian-project place,1145 Washington St,N,Y,N,Y,N,465585321,813410,Civic and Social Organizations,81,Other Services (except Public Administration), 
181,77799,Open, ,11/17/2018, ,20,893450601, ,33392303,42.342448,2118,-71.067265,j r carmichael co,1234 Washington St,N,Y,N,Y,N,893450601,333923,"Overhead Traveling Crane, Hoist, and Monorail System Manufacturing",33,Manufacturing, 
245,111629,Open, ,9/24/2019, ,20,477539639, ,92615004,42.34603,2118,-71.064091,curriculum instruction & tech,1000 Washington St,N,N,N,Y,N,477539639,926150,"Regulation, Licensing, and Inspection of Miscellaneous Commercial Sectors",92,Public Administration, 
284,125590,Open, ,10/1/2018, ,20,473953362, ,92615004,42.34603,2118,-71.064091,building inspection,1000 Washington St,N,N,N,Y,N,473953362,926150,"Regulation, Licensing, and Inspection of Miscellaneous Commercial Sectors",92,Public Administration, 
343,142499,Open, ,7/1/2019, ,19,713477907, ,54189002,42.337655,2118,-71.074928,apartments.com,1640 Washington St,N,Y,N,Y,N,713477907,541890,Other Services Related to Advertising,54,"Professional, Scientific, and Technical Services", 
66,23203,Open, ,11/23/2018, ,15,416514618, ,62149301,42.338291,2118,-71.074921,south end community dentistry,1601 Washington St,Y,Y,N,Y,N,416514618,621493,Freestanding Ambulatory Surgical and Emergency Centers,62,Health Care and Social Assistance, 
67,23212,Open, ,12/1/2017, ,15,409347217, ,81222002,42.3398,2118,-71.0735,south end burying ground,Washington St,N,N,N,Y,N,409347217,812220,Cemeteries and Crematories,81,Other Services (except Public Administration), 
98,37938,Open, ,4/19/2021, ,15,418627710, ,54143006,42.3398,2118,-71.0735,proverb,543 Albany St,N,N,N,Y,N,418627710,541430,Graphic Design Services,54,"Professional, Scientific, and Technical Services", 
138,56741,Open, ,4/1/2021, ,15,901200659, ,72251117,42.336974,2118,-71.076084,mike's city diner,1714 Washington St,Y,Y,N,Y,N,901200659,722511,Full-Service Restaurants,72,Accommodation and Food Services, 
189,83446,Open, ,4/1/2021, ,15,700297119, ,62422102,42.3398,2118,-71.0735,homeless services, ,N,N,N,Y,N,700297119,624221,Temporary Shelters,62,Health Care and Social Assistance, 
199,89207,Open, ,4/1/2021, ,15,593984883, ,81391002,42.3398,2118,-71.0735,grant manor tenants associates,1810 Washington St,N,N,N,Y,N,593984883,813910,Business Associations,81,Other Services (except Public Administration), 
203,91697,Open, ,12/17/2018, ,15,724856486, ,42412019,42.3398,2118,-71.0735,geobotics ltd,21 Newcomb St,N,N,N,Y,N,724856486,424120,Stationery and Office Supplies Merchant Wholesalers,42,Wholesale Trade, 
204,92378,Open, ,4/1/2021, ,15,564805554, ,62149301,42.33734,2118,-71.075215,gateman clinic,1670 Washington St,N,Y,N,Y,N,564805554,621493,Freestanding Ambulatory Surgical and Emergency Centers,62,Health Care and Social Assistance, 
81,27925,Open, ,4/1/2021, ,14,440271282, ,23721005,42.341858,2118,-71.069429,sea-dar enterprises inc,46 Waltham St,N,N,N,Y,N,440271282,237210,Land Subdivision,23,Construction, 
84,29536,Open, ,7/1/2020, ,14,107286031, ,62419012,42.339863,2118,-71.07184,salvation army community center,1500 Washington St,Y,Y,N,Y,N,107286031,624190,Other Individual and Family Services,62,Health Care and Social Assistance, 
113,44730,Open, ,4/1/2019, ,14,715910171, ,62431009,42.338509,2118,-71.075264,pain spine & rehab consulting,12 Cumston St,N,N,N,Y,N,715910171,624310,Vocational Rehabilitation Services,62,Health Care and Social Assistance, 
243,111372,Open, ,7/21/2020, ,14,740420413, ,44611009,42.344589,2118,-71.064911,cvs/pharmacy,341 Harrison Ave,N,N,N,Y,N,740420413,446110,Pharmacies and Drug Stores,44,Retail Trade, 
29,9446,Open, ,4/1/2020, ,13,749039929, ,54186007,42.336844,2118,-71.077054,ups access point location,1745 Washington St,N,Y,N,Y,N,749039929,541860,Direct Mail Advertising,54,"Professional, Scientific, and Technical Services", 
52,19421,Open, ,4/19/2021, ,13,107286668, ,44831012,42.334645,2118,-71.078788,suffolk jewelers & pawnbrokers,1888 Washington St,Y,Y,N,Y,N,107286668,448310,Jewelry Stores,44,Retail Trade, 
291,128282,Open, ,9/1/2020, ,13,417521653, ,62411006,42.3398,2118,-71.0735,boston youth sanctuary,1745A Washington St,N,N,N,Y,N,417521653,624110,Child and Youth Services,62,Health Care and Social Assistance, 
99,38394,Open, ,4/1/2020, ,12,732075766, ,99999005,42.343266,2118,-71.065922,prodyne corp,1166 Washington St,N,N,N,Y,N,732075766,0, ,0,UnclassIfied Business Types, 
102,38876,Open, ,4/1/2007, ,12,990253106, ,52229202,42.341412,2118,-71.07,pride mortgage,1387 Washington St,N,Y,N,Y,Y,990253106,522292,Real Estate Credit,52,Finance and Insurance,OPERATIONAL
137,56613,Open, ,9/1/2018, ,12,708483835, ,99999005,42.343157,2118,-71.065541,"mill river professional center, llc",35 Fay St,N,N,N,Y,N,708483835,0, ,0,UnclassIfied Business Types, 
147,62970,Open, ,4/1/2021, ,12,403637144, ,52391001,42.33848,2118,-71.073387,marais historic investments llc,19 Father Francis Gilday St,N,N,N,Y,N,403637144,523910,Miscellaneous Intermediation,52,Finance and Insurance, 
216,98535,Open, ,4/30/2021, ,12,719651494, ,99999005,42.34603,2118,-71.064091,"fame food management, inc",1000 Washington St,N,N,N,Y,N,719651494,0, ,0,UnclassIfied Business Types, 
223,101548,Open, ,4/1/2021, ,12,853813400, ,52229813,42.344004,2118,-71.065683,empire loan,1130 Washington St,Y,Y,N,Y,N,853813400,522298,All Other Nondepository Credit Intermediation,52,Finance and Insurance, 
230,103952,Open, ,1/1/2021, ,12,717717379, ,99999005,42.337655,2118,-71.074928,east concord street limited partnership,1640 Washington St,N,N,N,Y,N,717717379,0, ,0,UnclassIfied Business Types, 
252,114204,Open, ,3/9/2021, ,12,425760802, ,99999005,42.34603,2118,-71.064091,consumer affairs & bus,1000 Washington St,N,N,N,Y,N,425760802,0, ,0,UnclassIfied Business Types, 
286,126370,Open, ,4/8/2021, ,12,465604239, ,71211001,42.3398,2118,-71.0735,bromfield art gallery,27 Thayer St,N,N,N,Y,N,465604239,712110,Museums,71,"Arts, Entertainment, and Recreation", 
334,140055,Open, ,11/23/2018, ,12,355307737, ,52391001,42.342891,2118,-71.066057,atlas investment group,1200 Washington St,Y,Y,N,Y,N,355307737,523910,Miscellaneous Intermediation,52,Finance and Insurance, 
26,9222,Open, ,4/19/2021, ,11,433446981, ,53121003,42.343157,2118,-71.065541,urban property management,35 Fay St,Y,Y,N,Y,N,433446981,531210,Offices of Real Estate Agents and Brokers,53,Real Estate and Rental and Leasing, 
142,60283,Open, ,12:00:00 AM, ,11,435070844, ,51119908,42.339458,2118,-71.071449,master builder publications,10 E Brookline St,N,Y,N,Y,Y,435070844,511199,All Other Publishers,51,Information,OPERATIONAL
301,130376,Open, ,4/1/2021, ,11,439785912, ,92112006,42.337424,2118,-71.076245,boston housing authority,1701 Washington St,N,N,N,Y,N,439785912,921120,Legislative Bodies,92,Public Administration, 
303,130492,Open, ,4/24/2021, ,11,734895748, ,61171001,42.3398,2118,-71.0735,boston higher education resource center,62 Northampton St,N,N,N,Y,N,734895748,611710,Educational Support Services,61,Educational Services, 
13,4190,Open, ,11/13/2018, ,10,422380871, ,72251510,42.342368,2118,-71.067363,west newton donuts,1250 Washington St,N,N,N,Y,N,422380871,722515,Snack and Nonalcoholic Beverage Bars,72,Accommodation and Food Services, 
39,13298,Open, ,4/28/2021, ,10,628721151, ,72251117,42.336937,2118,-71.075881,toro,1704 Washington St,Y,Y,N,Y,N,628721151,722511,Full-Service Restaurants,72,Accommodation and Food Services, 
46,15081,Open, ,4/14/2021, ,10,749228316, ,53111002,42.3398,2118,-71.0735,the smith,89 E Dedham St,N,N,N,Y,N,749228316,531110,Lessors of Residential Buildings and Dwellings,53,Real Estate and Rental and Leasing, 
82,28606,Open, ,3/29/2021, ,10,709076099, ,54131009,42.342891,2118,-71.066057,sb architects & design build,1200 Washington St,N,N,N,Y,N,709076099,541310,Architectural Services,54,"Professional, Scientific, and Technical Services", 
90,31485,Open, ,10/17/2020, ,10,734458836, ,71131003,42.3398,2118,-71.0735,rotch field,30 Randolph St,N,N,N,Y,N,734458836,711310,"Promoters of Performing Arts, Sports, and Similar Events with Facilities",71,"Arts, Entertainment, and Recreation", 
91,31636,Open, ,9/1/2020, ,10,415547971, ,62423005,42.336431,2118,-71.076565,rosie's place,1750 Washington St,N,Y,Y,Y,N,415547971,624230,Emergency and Other Relief Services,62,Health Care and Social Assistance, 
126,53331,Open, ,4/24/2021, ,10,654152057, ,72251117,42.343866,2118,-71.066329,myers + chang,1145 Washington St,Y,Y,N,Y,N,654152057,722511,Full-Service Restaurants,72,Accommodation and Food Services, 
169,72534,Open, ,9/1/2020, ,10,415928024, ,53121003,42.342247,2118,-71.068538,keller williams realty,1313 Washington St,N,N,N,Y,N,415928024,531210,Offices of Real Estate Agents and Brokers,53,Real Estate and Rental and Leasing, 
190,85137,Open, ,4/7/2021, ,10,404923605, ,62331101,42.337655,2118,-71.074928,hearth inc,1640 Washington St,N,Y,N,Y,N,404923605,623311,Continuing Care Retirement Communities,62,Health Care and Social Assistance, 
191,85398,Open, ,4/1/2021, ,10,735719828, ,62199921,42.3398,2118,-71.0735,health centers mass league, ,N,N,N,Y,N,735719828,621999,All Other Miscellaneous Ambulatory Health Care Services,62,Health Care and Social Assistance, 
212,96308,Open, ,12:00:00 AM, ,10,741292010, ,48551002,42.333251,2119,-71.079716,first student inc,2000 Washington St,N,Y,N,Y,Y,741292010,485510,Charter Bus Industry,48,Transportation and Warehousing,OPERATIONAL
220,100013,Open, ,4/1/2021, ,10,416074520, ,81219904,42.341412,2118,-71.07,european wax center,1387 Washington St,Y,Y,Y,Y,N,416074520,812199,Other Personal Care Services,81,Other Services (except Public Administration), 
221,100771,Open, ,4/1/2021, ,10,265566596, ,72251117,42.337078,2118,-71.076614,equator restaurant,1721 Washington St,N,N,N,Y,N,265566596,722511,Full-Service Restaurants,72,Accommodation and Food Services, 
226,102056,Open, ,4/1/2020, ,10,907048110, ,53121003,42.342247,2118,-71.068538,elm appraisal service,1313 Washington St,N,N,N,Y,N,907048110,531210,Offices of Real Estate Agents and Brokers,53,Real Estate and Rental and Leasing, 
235,105729,Open, ,4/2/2021, ,10,739159818, ,44131011,42.341499,2118,-71.067719,dpf direct parts,1 Rollins St,N,Y,N,Y,N,739159818,441310,Automotive Parts and Accessories Stores,44,Retail Trade, 
266,119996,Open, ,8/3/2020, ,10,744376350, ,52211002,42.34514,2118,-71.064436,chase,345 Harrison Ave,N,Y,N,Y,N,744376350,522110,Commercial Banking,52,Finance and Insurance, 
280,123777,Open, ,5/27/2020, ,10,403523619, ,72121403,42.334154,2118,-71.079312,camp harbor view,1946 Washington St,N,Y,N,Y,N,403523619,721214,Recreational and Vacation Camps (except Campgrounds),72,Accommodation and Food Services, 
293,128519,Open, ,4/1/2019, ,10,732235740, ,62111107,42.3398,2118,-71.0735,boston university medical center,72 E Concord St Pulmonary Ctr,N,N,N,Y,N,732235740,621111,Offices of Physicians (except Mental Health Specialists),62,Health Care and Social Assistance, 
300,130357,Open, ,4/1/2021, ,10,426677004, ,92112006,42.340202,2118,-71.070351,boston housing authority,19 Monsignor Reynolds Way,N,Y,N,Y,N,426677004,921120,Legislative Bodies,92,Public Administration, 
302,130379,Open, ,4/1/2021, ,10,426718826, ,92112006,42.339458,2118,-71.071449,boston housing authority,10 E Brookline St,N,N,N,Y,N,426718826,921120,Legislative Bodies,92,Public Administration, 
47,15104,Open, ,10/29/2020, ,9,736171057, ,62419012,42.339863,2118,-71.07184,the salvation army,1500 Washington St,Y,Y,N,Y,N,736171057,624190,Other Individual and Family Services,62,Health Care and Social Assistance, 
62,23136,Open, ,5/1/2020, ,9,747931398, ,81331908,42.341858,2118,-71.069429,south end streets inc,46 Waltham St,N,N,N,Y,N,747931398,813319,Other Social Advocacy Organizations,81,Other Services (except Public Administration), 
73,24831,Open, ,4/1/2021, ,9,426604685, ,56131102,42.3398,2118,-71.0735,slalom consulting, ,N,N,N,Y,N,426604685,561311,Employment Placement Agencies,56,Administrative Waste Management, 
79,27364,Open, ,12/1/2017, ,9,401597161, ,54169055,42.340035,2118,-71.072139,sell master inc,1513 Washington St,N,N,N,Y,N,401597161,541690,Other Scientific and Technical Consulting Services,54,"Professional, Scientific, and Technical Services", 
97,37460,Open, ,2/17/2021, ,9,224429209, ,81211202,42.3398,2118,-71.0735,pure hair design,425 Harrison Ave,N,N,N,Y,N,224429209,812112,Beauty Salons,81,Other Services (except Public Administration), 
114,45265,Open, ,4/24/2021, ,9,415925609, ,54171416,42.341858,2118,-71.069429,over under,46 Waltham St,N,N,N,Y,N,415925609,541714,Research and Development in Biotechnology (except Nanobiotechnology),54,"Professional, Scientific, and Technical Services", 
124,52406,Open, ,2/1/2018, ,9,437347157, ,81331908,42.34603,2118,-71.064091,national network-child,1000 Washington St,N,N,N,Y,N,437347157,813319,Other Social Advocacy Organizations,81,Other Services (except Public Administration), 
140,59669,Open, ,3/16/2021, ,9,407716664, ,54169031,42.341492,2118,-71.067688,mazon lighting design llc,519 Harrison Ave,N,N,N,Y,N,407716664,541690,Other Scientific and Technical Consulting Services,54,"Professional, Scientific, and Technical Services", 
153,65379,Open, ,4/28/2021, ,9,746724412, ,81291021,42.3398,2118,-71.0735,loyal companion,1030 Washington St,N,N,N,Y,N,746724412,812910,Pet Care (except Veterinary) Services,81,Other Services (except Public Administration), 
159,68571,Open, ,12/1/2020, ,9,711131298, ,81331908,42.343266,2118,-71.065922,lean & local,1166 Washington St,N,N,N,Y,N,711131298,813319,Other Social Advocacy Organizations,81,Other Services (except Public Administration), 
185,79661,Open, ,4/1/2021, ,9,407700612, ,62419012,42.338075,2118,-71.075393,interfaith housing,68 W Concord St,N,Y,N,Y,N,407700612,624190,Other Individual and Family Services,62,Health Care and Social Assistance, 
242,110607,Open, ,4/20/2021, ,9,708731826, ,54181015,42.341858,2118,-71.069429,dailybreak cp llc,46 Waltham St,N,Y,N,Y,N,708731826,541810,Advertising Agencies,54,"Professional, Scientific, and Technical Services", 
268,121467,Open, ,1/1/2020, ,9,734651890, ,81331908,42.342891,2118,-71.066057,cellobello inc,1200 Washington St,N,N,N,Y,N,734651890,813319,Other Social Advocacy Organizations,81,Other Services (except Public Administration), 
288,126561,Open, ,2/1/2019, ,9,432328430, ,81331908,42.342026,2118,-71.067505,brix iii inc,1284 Washington St,N,N,N,Y,N,432328430,813319,Other Social Advocacy Organizations,81,Other Services (except Public Administration), 
354,147105,Open, ,11/1/2018, ,9,715644496, ,81331908,42.336431,2118,-71.076565,afrikcan forward inc,1746 Washington St,N,Y,N,Y,N,715644496,813319,Other Social Advocacy Organizations,81,Other Services (except Public Administration), 
4,1266,Open, ,10/1/2018, ,8,403182156, ,72251117,42.344166,2118,-71.065529,yan's china star,1102 Washington St,Y,Y,N,Y,N,403182156,722511,Full-Service Restaurants,72,Accommodation and Food Services, 
10,3787,Open, ,10/16/2020, ,8,711130796, ,72251117,42.343266,2118,-71.065922,what we eat llc,1166 Washington St,N,Y,N,Y,N,711130796,722511,Full-Service Restaurants,72,Accommodation and Food Services, 
27,9253,Open, ,10/6/2020, ,8,663428985, ,53121005,42.343157,2118,-71.065541,urban management,35 Fay St,Y,Y,N,Y,N,663428985,531210,Offices of Real Estate Agents and Brokers,53,Real Estate and Rental and Leasing, 
43,14672,Open, ,1/1/2012, ,8,415925139, ,23622005,42.339684,2118,-71.06971,thomas construction trailer,605 Harrison Ave,N,Y,N,Y,Y,415925139,236220,Commercial and Institutional Building Construction,23,Construction,OPERATIONAL
54,19799,Open, ,9/1/2020, ,8,435152865, ,54131001,42.341858,2118,-71.069429,studio 301,46 Waltham St,N,N,N,Y,N,435152865,541310,Architectural Services,54,"Professional, Scientific, and Technical Services", 
56,20593,Open, ,4/24/2021, ,8,433477255, ,53121003,42.342247,2118,-71.068538,steven cohen team,1313 Washington St,N,N,N,Y,N,433477255,531210,Offices of Real Estate Agents and Brokers,53,Real Estate and Rental and Leasing, 
95,35403,Open, ,11/5/2020, ,8,570480475, ,92412005,42.34603,2118,-71.064091,real estate appraisers board,1000 Washington St,N,N,N,Y,N,570480475,924120,Administration of Conservation Programs,92,Public Administration, 
103,39591,Open, ,2/27/2019, ,8,721048816, ,72251117,42.3398,2118,-71.0735,post road provisions,375 Harrison Ave,N,N,N,Y,N,721048816,722511,Full-Service Restaurants,72,Accommodation and Food Services, 
115,45420,Open, ,4/1/2021, ,8,401932633, ,54131001,42.341858,2118,-71.069429,oudens ello architecture,46 Waltham St,N,N,N,Y,N,401932633,541310,Architectural Services,54,"Professional, Scientific, and Technical Services", 
120,47133,Open, ,1/28/2021, ,8,604839514, ,72251117,42.343266,2118,-71.065922,oishii boston,1166 Washington St,Y,Y,N,Y,N,604839514,722511,Full-Service Restaurants,72,Accommodation and Food Services, 
123,50316,Open, ,1/1/2020, ,8,743712273, ,72251117,42.344166,2118,-71.065529,new ming inc,1102 Washington St,N,Y,N,Y,N,743712273,722511,Full-Service Restaurants,72,Accommodation and Food Services, 
150,63227,Open, ,10/1/2017, ,8,532137890, ,53121003,42.335425,2118,-71.078631,mandela homes llp,1855 Washington St,N,Y,N,Y,Y,532137890,531210,Offices of Real Estate Agents and Brokers,53,Real Estate and Rental and Leasing,OPERATIONAL
156,67144,Open, ,4/2/2021, ,8,426021506, ,54131001,42.341858,2118,-71.069429,lim design studio,46 Waltham St,N,N,N,Y,N,426021506,541310,Architectural Services,54,"Professional, Scientific, and Technical Services", 
167,72305,Open, ,4/1/2021, ,8,726002227, ,23622005,42.334154,2118,-71.079312,kennedy desing build,1946 Washington St,N,Y,N,Y,N,726002227,236220,Commercial and Institutional Building Construction,23,Construction, 
174,75454,Open, ,11/19/2020, ,8,725800475, ,54131001,42.3398,2118,-71.0735,john buckley architecture,46 Waltham St Studio 101,N,N,N,Y,N,725800475,541310,Architectural Services,54,"Professional, Scientific, and Technical Services", 
178,77402,Open, ,4/22/2021, ,8,403656790, ,72251505,42.337932,2118,-71.075596,jaho coffee & tea,1651 Washington St,Y,Y,N,Y,N,403656790,722515,Snack and Nonalcoholic Beverage Bars,72,Accommodation and Food Services, 
200,89209,Open, ,4/1/2021, ,8,593991870, ,44314241,42.3398,2118,-71.0735,grant manor computer center,1810 Washington St,N,N,N,Y,N,593991870,443142,Electronics Stores,44,Retail Trade, 
207,93571,Open, ,9/1/2020, ,8,427811778, ,72251117,42.342378,2118,-71.06735,fuji food,1248 Washington St,N,N,N,Y,N,427811778,722511,Full-Service Restaurants,72,Accommodation and Food Services, 
240,107183,Open, ,2/13/2020, ,8,686950833, ,51521001,42.339657,2118,-71.073552,dish network,380 Shawmut Ave,N,N,N,Y,N,686950833,515210,Cable and Other Subscription Programming,51,Information, 
255,115086,Open, ,4/16/2021, ,8,740311795, ,54191003,42.341412,2118,-71.07,community research initiative,1387 Washington St,N,Y,N,Y,N,740311795,541910,Marketing Research and Public Opinion Polling,54,"Professional, Scientific, and Technical Services", 
273,122046,Open, ,4/22/2021, ,8,436628273, ,72241001,42.342772,2118,-71.066721,cathedral station,1222 Washington St,Y,Y,N,Y,N,436628273,722410,Drinking Places (Alcoholic Beverages),72,Accommodation and Food Services, 
283,125219,Open, ,4/6/2021, ,8,735821938, ,72251117,42.341667,2118,-71.069283,burro bar,1357 Washington St,Y,Y,N,Y,N,735821938,722511,Full-Service Restaurants,72,Accommodation and Food Services, 
305,131496,Open, ,3/25/2021, ,8,426604346, ,72251117,42.341631,2118,-71.069613,boston chops,1375 Washington St,Y,Y,N,Y,N,426604346,722511,Full-Service Restaurants,72,Accommodation and Food Services, 
321,137775,Open, ,4/21/2021, ,8,717763136, ,72251117,42.3398,2118,-71.0735,bar mezzana,360 Harrison Ave,N,N,N,Y,N,717763136,722511,Full-Service Restaurants,72,Accommodation and Food Services, 
355,149649,Open, ,4/1/2021, ,8,721900953, ,72251117,42.3398,2118,-71.0735,a4,262 E Berkeley St,N,N,N,Y,N,721900953,722511,Full-Service Restaurants,72,Accommodation and Food Services, 
3,1091,Open, ,9/1/2018, ,7,434258481, ,54161830,42.343266,2118,-71.065922,yen consulting group inc,1166 Washington St,N,Y,N,Y,N,434258481,541618,Other Management Consulting Services,54,"Professional, Scientific, and Technical Services", 
5,3187,Open, ,4/23/2020, ,7,449160423, ,54111002,42.343596,2118,-71.06584,william soohoo law office,1146 Washington St,N,N,N,Y,N,449160423,541110,Offices of Lawyers,54,"Professional, Scientific, and Technical Services", 
35,11159,Open, ,4/1/2021, ,7,391026622, ,81211101,42.342247,2118,-71.068538,tweed barbers of boston,1313 Washington St,N,N,N,Y,N,391026622,812111,Barber Shops,81,Other Services (except Public Administration), 
57,20644,Open, ,12/16/2020, ,7,593977796, ,54131001,42.341858,2118,-71.069429,stern mccafferty architects,46 Waltham St,N,N,N,Y,N,593977796,541310,Architectural Services,54,"Professional, Scientific, and Technical Services", 
63,23167,Open, ,3/30/2021, ,7,722636319, ,54151217,42.3398,2118,-71.0735,south end hospitality llc, ,N,N,N,Y,N,722636319,541512,Computer Systems Design Services,54,"Professional, Scientific, and Technical Services", 
72,24779,Open, ,4/10/2021, ,7,532114436, ,53121003,42.336844,2118,-71.077054,sleeping dog properties inc,1745 Washington St,N,N,N,Y,N,532114436,531210,Offices of Real Estate Agents and Brokers,53,Real Estate and Rental and Leasing, 
117,45995,Open, ,12/22/2018, ,7,713429518, ,52229202,42.3398,2118,-71.0735,optimum mortgage corporation,1107 Washington St,N,N,N,Y,N,713429518,522292,Real Estate Credit,52,Finance and Insurance, 
175,76521,Open, ,3/3/2021, ,7,262037054, ,53121003,42.342247,2118,-71.068538,jebb & driggin realty inc,1313 Washington St,N,N,N,Y,N,262037054,531210,Offices of Real Estate Agents and Brokers,53,Real Estate and Rental and Leasing, 
179,77484,Open, ,4/1/2021, ,7,219139060, ,42499034,42.3398,2118,-71.0735,jacobson,75 Wareham St,N,N,N,Y,N,219139060,424990,Other Miscellaneous Nondurable Goods Merchant Wholesalers,42,Wholesale Trade, 
180,77581,Open, ,9/2/2020, ,7,737593141, ,54161830,42.341227,2118,-71.070531,jacket river consulting inc,1411 Washington St,N,N,N,Y,N,737593141,541618,Other Management Consulting Services,54,"Professional, Scientific, and Technical Services", 
205,92628,Open, ,7/18/2019, ,7,744469709, ,23835017,42.3398,2118,-71.0735,garage door boston,Newmarket SQ,N,N,N,Y,N,744469709,238350,Finish Carpentry Contractors,23,Construction, 
213,97557,Open, ,3/8/2021, ,7,756194086, ,72251117,42.342319,2118,-71.067383,feno's pizza & roast beef,1254 Washington St,N,Y,N,Y,N,756194086,722511,Full-Service Restaurants,72,Accommodation and Food Services, 
218,99191,Open, ,9/1/2018, ,7,726353841, ,71119007,42.338075,2118,-71.075393,expressive life,68 W Concord St,N,Y,N,Y,N,726353841,711190,Other Performing Arts Companies,71,"Arts, Entertainment, and Recreation", 
222,101350,Open, ,7/1/2017, ,7,438003080, ,71394023,42.337939,2118,-71.074712,endurance pilates & yoga llc,1636 Washington St,Y,Y,N,Y,N,438003080,713940,Fitness and Recreational Sports Centers,71,"Arts, Entertainment, and Recreation", 
254,114475,Open, ,8/14/2018, ,7,382604445, ,54151217,42.341858,2118,-71.069429,connelly digital,46 Waltham St,N,N,N,Y,N,382604445,541512,Computer Systems Design Services,54,"Professional, Scientific, and Technical Services", 
323,137811,Open, ,8/11/2020, ,7,701758483, ,23622047,42.3398,2118,-71.0735,banshee maintenance inc,421 Harrison Ave,N,N,N,Y,N,701758483,236220,Commercial and Institutional Building Construction,23,Construction, 
30,9730,Open, ,4/1/2021, ,6,705603947, ,45391004,42.341843,2118,-71.067741,unleashed by petco,1310 Washington St,Y,N,N,Y,N,705603947,453910,Pet and Pet Supplies Stores,45,Retail Trade, 
50,17000,Open, ,11/12/2020, ,6,744548946, ,31181102,42.34514,2118,-71.064436,tatte bakery & cafe,345 Harrison Ave,N,N,N,Y,N,744548946,311811,Retail Bakeries,31,Manufacturing, 
61,22843,Open, ,4/24/2021, ,6,465645851, ,54131001,42.341858,2118,-71.069429,spalding tougias architects,46 Waltham St,N,N,N,Y,N,465645851,541310,Architectural Services,54,"Professional, Scientific, and Technical Services", 
83,28659,Open, ,4/1/2021, ,6,417213585, ,53111004,42.342006,2118,-71.067509,savoy condo trust,1280 Washington St,N,Y,N,Y,N,417213585,531110,Lessors of Residential Buildings and Dwellings,53,Real Estate and Rental and Leasing, 
105,41190,Open, ,4/1/2021, ,6,741340209, ,71151018,42.341858,2118,-71.069429,picture park,46 Waltham St,N,N,N,Y,N,741340209,711510,"Independent Artists, Writers, and Performers",71,"Arts, Entertainment, and Recreation", 
201,89210,Open, ,10/1/2017, ,6,532137742, ,53111002,42.335608,2118,-71.0779,grant manor apartments,1812 Washington St,N,Y,N,Y,Y,532137742,531110,Lessors of Residential Buildings and Dwellings,53,Real Estate and Rental and Leasing,OPERATIONAL
233,104829,Open, ,10/1/2020, ,6,564752459, ,72251510,42.343712,2118,-71.065842,dunkin',1138 Washington St,Y,Y,N,Y,N,564752459,722515,Snack and Nonalcoholic Beverage Bars,72,Accommodation and Food Services, 
236,105865,Open, ,4/1/2021, ,6,690463542, ,53111004,42.3398,2118,-71.0735,dover lofts condo trust,135 E Berkeley St,N,N,N,Y,N,690463542,531110,Lessors of Residential Buildings and Dwellings,53,Real Estate and Rental and Leasing, 
271,122016,Open, ,1/1/2015, ,6,403865297, ,62419011,42.340777,2118,-71.068161,catholic charities,76 Union Park St,N,Y,N,Y,Y,403865297,624190,Other Individual and Family Services,62,Health Care and Social Assistance,OPERATIONAL
272,122045,Open, ,1/1/2014, ,6,532100146, ,81391002,42.340056,2118,-71.071177,cathedral tenants united inc,1472 Washington St,N,Y,N,Y,Y,532100146,813910,Business Associations,81,Other Services (except Public Administration),OPERATIONAL
275,122049,Open, ,4/6/2021, ,6,360232359, ,81311008,42.3409,2118,-71.069946,cathedral of holy cross,1400 Washington St,Y,Y,N,Y,N,360232359,813110,Religious Organizations,81,Other Services (except Public Administration), 
289,126928,Open, ,3/1/2018, ,6,700297157, ,62111107,42.3398,2118,-71.0735,brigham surgical group, ,N,N,N,Y,N,700297157,621111,Offices of Physicians (except Mental Health Specialists),62,Health Care and Social Assistance, 
290,128163,Open, ,10/18/2020, ,6,727721189, ,44411001,42.336431,2118,-71.076565,bostonian building products inc,1750 Washington St,N,N,N,Y,N,727721189,444110,Home Centers,44,Retail Trade, 
296,129912,Open, ,5/1/2018, ,6,713486013, ,62111107,42.3398,2118,-71.0735,boston medical center,Maternity Six One BMC Pl,N,N,N,Y,N,713486013,621111,Offices of Physicians (except Mental Health Specialists),62,Health Care and Social Assistance, 
297,129914,Open, ,5/1/2016, ,6,713408344, ,62111107,42.3398,2118,-71.0735,boston medical center,88 E Nwon St,N,N,N,Y,N,713408344,621111,Offices of Physicians (except Mental Health Specialists),62,Health Care and Social Assistance, 
340,141575,Open, ,4/1/2021, ,6,564875417, ,53111004,42.341234,2118,-71.070238,arlington court condominium association,1413 Washington St,N,Y,N,Y,N,564875417,531110,Lessors of Residential Buildings and Dwellings,53,Real Estate and Rental and Leasing, 
7,3359,Open, ,4/1/2021, ,5,206727422, ,53111004,42.342247,2118,-71.068538,wilkes passage condominiums,1313 Washington St,N,N,N,Y,N,206727422,531110,Lessors of Residential Buildings and Dwellings,53,Real Estate and Rental and Leasing, 
14,4644,Open, ,12:00:00 AM, ,5,438165117, ,53121003,42.336844,2118,-71.077054,weichert realtors-hudson,1745 Washington St,N,Y,N,Y,Y,438165117,531210,Offices of Real Estate Agents and Brokers,53,Real Estate and Rental and Leasing,OPERATIONAL
44,14676,Open, ,10/1/2017, ,5,426603310, ,23611512,42.339515,2118,-71.070528,thomas construction,42 Harrison Archway,N,Y,N,Y,Y,426603310,236115,New Single-Family Housing Construction (except For-Sale Builders),23,Construction,OPERATIONAL
49,15401,Open, ,6/1/2019, ,5,465584480, ,62161001,42.338249,2118,-71.073105,the franklin,11 E Newton St,N,Y,N,Y,N,465584480,621610,Home Health Care Services,62,Health Care and Social Assistance, 
75,26102,Open, ,9/1/2018, ,5,735536986, ,44821007,42.34514,2118,-71.064436,shoe leave,345 Harrison Ave,N,N,N,Y,N,735536986,448210,Shoe Stores,44,Retail Trade, 
78,27136,Open, ,11/12/2020, ,5,720596132, ,44821007,42.341858,2118,-71.069429,ser verde,46 Waltham St,N,Y,N,Y,N,720596132,448210,Shoe Stores,44,Retail Trade, 
80,27420,Open, ,3/14/2021, ,5,382368496, ,72251117,42.337078,2118,-71.076614,seiyo sushi & wine shop,1721 Washington St,N,Y,N,Y,N,382368496,722511,Full-Service Restaurants,72,Accommodation and Food Services, 
86,31193,Open, ,4/1/2021, ,5,564772762, ,53121003,42.3398,2118,-71.0735,roxse homes,20 Kendall St,N,N,N,Y,N,564772762,531210,Offices of Real Estate Agents and Brokers,53,Real Estate and Rental and Leasing, 
87,31310,Open, ,4/1/2021, ,5,360213474, ,53111002,42.336172,2118,-71.078259,roxbury corners parmelee corp,134 Northampton St,N,Y,N,Y,N,360213474,531110,Lessors of Residential Buildings and Dwellings,53,Real Estate and Rental and Leasing, 
92,32094,Open, ,4/1/2021, ,5,265569889, ,53111004,42.341499,2118,-71.067719,rollins square condominium,2 Rollins St,Y,Y,N,Y,N,265569889,531110,Lessors of Residential Buildings and Dwellings,53,Real Estate and Rental and Leasing, 
107,41812,Open, ,7/18/2019, ,5,701761920, ,71219025,42.3398,2118,-71.0735,peter's park dog run,1277 Washington St,N,N,N,Y,N,701761920,712190,Nature Parks and Other Similar Institutions,71,"Arts, Entertainment, and Recreation", 
110,43254,Open, ,4/1/2021, ,5,949518500, ,54141002,42.341858,2118,-71.069429,paul rhode design,46 Waltham St,N,N,N,Y,N,949518500,541410,Interior Design Services,54,"Professional, Scientific, and Technical Services", 
116,45898,Open, ,4/1/2021, ,5,700327773, ,52399113,42.337426,2118,-71.075091,orange octopus trust,1662 Washington St,N,Y,N,Y,N,700327773,523991,"Trust, Fiduciary, and Custody Activities",52,Finance and Insurance, 
119,46834,Open, ,4/18/2021, ,5,107436727, ,45311001,42.336844,2118,-71.077054,olympia flower store,1745 Washington St,Y,Y,N,Y,N,107436727,453110,Florists,45,Retail Trade, 
127,53642,Open, ,4/1/2021, ,5,564729093, ,51223001,42.336844,2118,-71.077054,music associates,1745 Washington St,N,Y,N,Y,N,564729093,512230,Music Publishers,51,Information, 
130,55063,Open, ,11/11/2020, ,5,713411480, ,45111006,42.3398,2118,-71.0735,montague corp,1 Herald St,N,N,N,Y,N,713411480,451110,Sporting Goods Stores,45,Retail Trade, 
155,66597,Open, ,1/7/2021, ,5,736700697, ,81341004,42.337939,2118,-71.074712,little lovage club,1636 Washington St,N,Y,N,Y,N,736700697,813410,Civic and Social Organizations,81,Other Services (except Public Administration), 
157,67981,Open, ,6/12/2020, ,5,724272280, ,23821007,42.342532,2118,-71.067375,leon electric,1234 Washington St,N,N,N,Y,N,724272280,238210,Electrical Contractors and Other Wiring Installation Contractors,23,Construction, 
170,72631,Open, ,5/26/2018, ,5,236161626, ,61162016,42.336431,2118,-71.076565,keel gear,1750 Washington St,N,Y,N,Y,N,236161626,611620,Sports and Recreation Instruction,61,Educational Services, 
183,79326,Open, ,8/17/2020, ,5,741163502, ,54193001,42.335932,2118,-71.077884,international translation co,1807 Washington St,N,N,N,Y,N,741163502,541930,Translation and Interpretation Services,54,"Professional, Scientific, and Technical Services", 
198,88076,Open, ,4/1/2021, ,5,435153776, ,53121003,42.3398,2118,-71.0735,gti properties,536 Harrison Ave,N,N,N,Y,N,435153776,531210,Offices of Real Estate Agents and Brokers,53,Real Estate and Rental and Leasing, 
208,94314,Open, ,12/3/2020, ,5,713470758, ,53121005,42.338249,2118,-71.073105,franklin square apartments,11 E Newton St,Y,Y,N,Y,N,713470758,531210,Offices of Real Estate Agents and Brokers,53,Real Estate and Rental and Leasing, 
209,94640,Open, ,9/1/2018, ,5,432328928, ,56111022,42.333798,2118,-71.079876,foust clapp management inc,1960 Washington St,N,Y,N,Y,N,432328928,561110,Office Administrative Services,56,Administrative Waste Management, 
224,101704,Open, ,5/1/2016, ,5,713431046, ,33341312,42.33425,2118,-71.079258,emerson climate tech inc,1920 Washington St,N,Y,N,Y,N,713431046,333413,Industrial and Commercial Fan and Blower and Air Purification Equipment Manufacturing,33,Manufacturing, 
234,105338,Open, ,12:00:00 AM, ,5,736642143, ,53121003,42.342247,2118,-71.068538,driggin realty group,1313 Washington St,Y,Y,N,Y,N,736642143,531210,Offices of Real Estate Agents and Brokers,53,Real Estate and Rental and Leasing, 
244,111602,Open, ,4/1/2019, ,5,734651871, ,53121003,42.344448,2118,-71.064828,curtis realty group inc,32 Traveler St,N,N,N,Y,N,734651871,531210,Offices of Real Estate Agents and Brokers,53,Real Estate and Rental and Leasing, 
246,111705,Open, ,4/1/2021, ,5,715455414, ,72251505,42.345148,2118,-71.064436,cuppacoffee,55 Traveler St,N,N,N,Y,N,715455414,722515,Snack and Nonalcoholic Beverage Bars,72,Accommodation and Food Services, 
247,111992,Open, ,1/20/2021, ,5,736758469, ,53121003,42.335981,2118,-71.077031,crystal realty co,1762 Washington St,N,Y,N,Y,N,736758469,531210,Offices of Real Estate Agents and Brokers,53,Real Estate and Rental and Leasing, 
251,114071,Open, ,4/19/2021, ,5,748953100, ,62111110,42.3398,2118,-71.0735,contouring by kate,425 Harrison Ave,N,N,N,Y,N,748953100,621111,Offices of Physicians (except Mental Health Specialists),62,Health Care and Social Assistance, 
257,116257,Open, ,4/15/2021, ,5,723148385, ,53121003,42.334528,2118,-71.078982,collaborative boston real estate,1904 Washington St,N,Y,N,Y,N,723148385,531210,Offices of Real Estate Agents and Brokers,53,Real Estate and Rental and Leasing, 
277,122869,Open, ,10/1/2020, ,5,628729303, ,53121003,42.334747,2118,-71.078654,caritas communities,1 E Lenox St,N,Y,N,Y,N,628729303,531210,Offices of Real Estate Agents and Brokers,53,Real Estate and Rental and Leasing, 
287,126559,Open, ,10/1/2020, ,5,238702906, ,44531005,42.342026,2118,-71.067505,brix wine shop,1284 Washington St,Y,Y,N,Y,N,238702906,445310,"Beer, Wine, and Liquor Stores",44,Retail Trade, 
298,130084,Open, ,12/10/2018, ,5,436138210, ,23821019,42.3398,2118,-71.0735,boston lightning rod co,1201 E Dedham,N,N,N,Y,N,436138210,238210,Electrical Contractors and Other Wiring Installation Contractors,23,Construction, 
309,133442,Open, ,10/1/2017, ,5,721794920, ,54181014,42.3398,2118,-71.0735,blowleaf,Northampton ST,N,N,N,Y,N,721794920,541810,Advertising Agencies,54,"Professional, Scientific, and Technical Services", 
311,135345,Open, ,4/1/2021, ,5,725685738, ,52211002,42.34161,2118,-71.068352,berkshire bank,1320 Washington St,N,Y,N,Y,N,725685738,522110,Commercial Banking,52,Finance and Insurance, 
314,136187,Open, ,4/1/2021, ,5,853940740, ,54141003,42.341858,2118,-71.069429,beauchemin grassi interiors,46 Waltham St,N,N,N,Y,N,853940740,541410,Interior Design Services,54,"Professional, Scientific, and Technical Services", 
315,136562,Open, ,2/13/2020, ,5,360194054, ,62221001,42.34603,2118,-71.064091,beacon health options,1000 Washington St,N,N,N,Y,N,360194054,622210,Psychiatric and Substance Abuse Hospitals,62,Health Care and Social Assistance, 
316,136594,Open, ,4/1/2020, ,5,416588991, ,53111002,42.335425,2118,-71.078631,beacon community llc,1855 Washington St,N,N,N,Y,N,416588991,531110,Lessors of Residential Buildings and Dwellings,53,Real Estate and Rental and Leasing, 
319,137612,Open, ,8/1/2019, ,5,738548103, ,56111022,42.3398,2118,-71.0735,barkan management co, ,N,N,N,Y,N,738548103,561110,Office Administrative Services,56,Administrative Waste Management, 
326,138145,Open, ,4/1/2021, ,5,388322778, ,53131103,42.342891,2118,-71.066057,ballast realty group,1200 Washington St,N,N,N,Y,N,388322778,531311,Residential Property Managers,53,Real Estate and Rental and Leasing, 
327,138152,Open, ,4/30/2021, ,5,440033327, ,71113002,42.341516,2118,-71.067762,ball in the house llc,15 Waltham St,N,Y,N,Y,N,440033327,711130,Musical Groups and Artists,71,"Arts, Entertainment, and Recreation", 
333,140054,Open, ,4/30/2021, ,5,564786564, ,53121003,42.343157,2118,-71.065541,atlas investment group llc,35 Fay St,N,N,N,Y,N,564786564,531210,Offices of Real Estate Agents and Brokers,53,Real Estate and Rental and Leasing, 
348,144033,Open, ,12/17/2018, ,5,713454840, ,56143901,42.342891,2118,-71.066057,american reprographics co,1200 Washington St,N,N,N,Y,N,713454840,561439,Other Business Service Centers (including Copy Shops),56,Administrative Waste Management, 
358,150173,Open, ,4/20/2021, ,5,706592630, ,23611512,42.336431,2118,-71.076565,a d construction llc,1750 Washington St,N,Y,N,Y,N,706592630,236115,New Single-Family Housing Construction (except For-Sale Builders),23,Construction, 
360,150832,Open, ,2/1/2021, ,5,628750440, ,44512001,42.336844,2118,-71.077054,7-eleven,1747 Washington St,Y,Y,N,Y,N,628750440,445120,Convenience Stores,44,Retail Trade, 
23,8044,Open, ,4/12/2021, ,4,409305218, ,54111002,42.34309,2118,-71.066322,vaughn martel law,1180 Washington St,N,Y,N,Y,N,409305218,541110,Offices of Lawyers,54,"Professional, Scientific, and Technical Services", 
24,8045,Open, ,1/28/2019, ,4,689087567, ,54111002,42.342891,2118,-71.066057,vaughn martel law,1200 Washington St,N,N,N,Y,N,689087567,541110,Offices of Lawyers,54,"Professional, Scientific, and Technical Services", 
53,19427,Open, ,3/28/2021, ,4,749119625, ,23821007,42.3398,2118,-71.0735,suffolk electrical company,901 Massachusetts Ave,N,N,N,Y,N,749119625,238210,Electrical Contractors and Other Wiring Installation Contractors,23,Construction, 
68,23603,Open, ,12:00:00 AM, ,4,747450739, ,52421001,42.343524,2118,-71.065865,"soo hoo, richard insurance agency, inc",1148 Washington St,N,Y,N,Y,Y,747450739,524210,Insurance Agencies and Brokerages,52,Finance and Insurance,OPERATIONAL
69,24438,Open, ,4/10/2021, ,4,749178369, ,23821007,42.3398,2118,-71.0735,smith brothers electrical co,61 W Dedham St,N,N,N,Y,N,749178369,238210,Electrical Contractors and Other Wiring Installation Contractors,23,Construction, 
76,26546,Open, ,3/29/2021, ,4,749119685, ,23821007,42.3398,2118,-71.0735,shawmut electrical contractors,262 E Berkeley St,N,N,N,Y,N,749119685,238210,Electrical Contractors and Other Wiring Installation Contractors,23,Construction, 
88,31311,Open, ,3/19/2019, ,4,532136678, ,53111002,42.335999,2118,-71.07724,roxbury corners llc,1782 Washington St,N,N,N,Y,N,532136678,531110,Lessors of Residential Buildings and Dwellings,53,Real Estate and Rental and Leasing, 
101,38606,Open, ,11/1/2018, ,4,713424969, ,56199001,42.341858,2118,-71.069429,prism partnership llc,46 Waltham St,N,Y,N,Y,N,713424969,561990,All Other Support Services,56,Administrative Waste Management, 
108,41966,Open, ,3/6/2021, ,4,439886859, ,56171009,42.341927,2118,-71.067879,pest control boston king,1304 Washington St,N,N,N,Y,N,439886859,561710,Exterminating and Pest Control Services,56,Administrative Waste Management, 
112,43989,Open, ,4/14/2021, ,4,449145465, ,53111002,42.335999,2118,-71.07724,parmelee court homes,1782 Washington St,N,N,N,Y,N,449145465,531110,Lessors of Residential Buildings and Dwellings,53,Real Estate and Rental and Leasing, 
128,54442,Open, ,9/1/2018, ,4,717101572, ,81341018,42.335425,2118,-71.078631,mount horeb organization,1855 Washington St,N,N,N,Y,N,717101572,813410,Civic and Social Organizations,81,Other Services (except Public Administration), 
139,56859,Open, ,9/6/2020, ,4,713447490, ,61171013,42.34603,2118,-71.064091,midwestern higher education compact,1000 Washington St,N,N,N,Y,N,713447490,611710,Educational Support Services,61,Educational Services, 
158,67982,Open, ,4/1/2021, ,4,417016350, ,23821007,42.342448,2118,-71.067265,leon eg co inc,1234 Washington St,N,N,N,Y,N,417016350,238210,Electrical Contractors and Other Wiring Installation Contractors,23,Construction, 
172,74015,Open, ,4/1/2021, ,4,992525113, ,45392002,42.342891,2118,-71.066057,jules place,1200 Washington St,N,N,N,Y,N,992525113,453920,Art Dealers,45,Retail Trade, 
184,79379,Open, ,4/2/2021, ,4,741920867, ,45399878,42.3398,2118,-71.0735,international poster gallery,460C Harrison Ave,N,N,N,Y,N,741920867,453998,All Other Miscellaneous Store Retailers (except Tobacco Stores),45,Retail Trade, 
197,87287,Open, ,4/14/2021, ,4,690458575, ,81211202,42.335515,2118,-71.078015,hair stop beauty supply,1826 Washington St,Y,Y,Y,Y,N,690458575,812112,Beauty Salons,81,Other Services (except Public Administration), 
259,116604,Open, ,4/9/2019, ,4,435953539, ,72251117,42.337925,2118,-71.074732,code 10 restaurant cafe,1638 Washington St,N,N,N,Y,N,435953539,722511,Full-Service Restaurants,72,Accommodation and Food Services, 
317,137066,Open, ,1/1/2020, ,4,418365417, ,53131205,42.342197,2118,-71.067551,bay state industrial service,1262 Washington St,Y,Y,N,Y,N,418365417,531312,Nonresidential Property Managers,53,Real Estate and Rental and Leasing, 
318,137497,Open, ,4/1/2021, ,4,726058099, ,81219101,42.339947,2118,-71.072487,barre 3,1511 Washington St,N,N,N,Y,N,726058099,812191,Diet and Weight Reducing Centers,81,Other Services (except Public Administration), 
325,137923,Open, ,3/20/2020, ,4,734921443, ,52232001,42.335981,2118,-71.077031,bank of america advanced center,1762 Washington St,N,N,N,Y,N,734921443,522320,"Financial Transactions Processing, Reserve, and Clearinghouse Activities",52,Finance and Insurance, 
328,138273,Open, ,9/1/2018, ,4,724652658, ,31181102,42.344448,2118,-71.064828,bake to be fit,32 Traveler St,N,N,N,Y,N,724652658,311811,Retail Bakeries,31,Manufacturing, 
341,141871,Open, ,4/26/2021, ,4,449128677, ,54131001,42.34603,2118,-71.064091,architectural access board,1000 Washington St,N,N,N,Y,N,449128677,541310,Architectural Services,54,"Professional, Scientific, and Technical Services", 
346,143033,Open, ,4/29/2021, ,4,203086368, ,81211202,42.337778,2118,-71.075495,anita kurl,1661 Washington St,Y,Y,Y,Y,N,203086368,812112,Beauty Salons,81,Other Services (except Public Administration), 
356,149684,Open, ,11/5/2018, ,4,407680817, ,56171009,42.3398,2118,-71.0735,a1 exterminators, ,N,N,N,Y,N,407680817,561710,Exterminating and Pest Control Services,56,Administrative Waste Management, 
9,3505,Open, ,9/1/2020, ,3,244574281, ,54143006,42.342891,2118,-71.066057,whydesignworks,1200 Washington St,N,N,N,Y,N,244574281,541430,Graphic Design Services,54,"Professional, Scientific, and Technical Services", 
12,4015,Open, ,1/1/2020, ,3,747697364, ,52232010,42.338253,2118,-71.074959,western union agent location,1603 Washington St,N,N,N,Y,N,747697364,522320,"Financial Transactions Processing, Reserve, and Clearinghouse Activities",52,Finance and Insurance, 
15,4743,Open, ,12/2/2020, ,3,718546331, ,52211002,42.341512,2118,-71.069439,webster bank,1365 Washington St,N,Y,N,Y,N,718546331,522110,Commercial Banking,52,Finance and Insurance, 
21,6752,Open, ,9/1/2020, ,3,435153021, ,44812010,42.341252,2118,-71.070207,viola lovely,1409 Washington St,Y,Y,N,Y,N,435153021,448120,Women's Clothing Stores,44,Retail Trade, 
22,6768,Open, ,4/25/2021, ,3,425370008, ,45311001,42.3398,2118,-71.0735,vintage garden,61 Thayer St,N,N,N,Y,N,425370008,453110,Florists,45,Retail Trade, 
34,10607,Open, ,4/1/2021, ,3,746421516, ,72251117,42.344166,2118,-71.065529,ultra spicy house,1102 Washington St,N,Y,N,Y,N,746421516,722511,Full-Service Restaurants,72,Accommodation and Food Services, 
36,11823,Open, ,4/14/2021, ,3,723617610, ,53131101,42.345148,2118,-71.064436,troy boston apartments,55 Traveler St,N,N,N,Y,N,723617610,531311,Residential Property Managers,53,Real Estate and Rental and Leasing, 
55,19926,Open, ,5/1/2020, ,3,404697809, ,32311109,42.341858,2118,-71.069429,stripe & field,46 Waltham St,N,Y,N,Y,N,404697809,323111,Commercial Printing (except Screen and Books),32,Manufacturing, 
64,23177,Open, ,4/1/2021, ,3,269155149, ,45399852,42.3398,2118,-71.0735,south end frames,105-107 E Berkeley St,N,N,N,Y,N,269155149,453998,All Other Miscellaneous Store Retailers (except Tobacco Stores),45,Retail Trade, 
70,24752,Open, ,6/1/2019, ,3,704930563, ,44419017,42.343157,2118,-71.065541,sliding door co of mass,35 Fay St,N,N,N,Y,N,704930563,444190,Other Building Material Dealers,44,Retail Trade, 
77,26743,Open, ,4/16/2021, ,3,748560028, ,81211202,42.335932,2118,-71.077884,shamso hair studio & spa,1807 Washington St,Y,Y,N,Y,N,748560028,812112,Beauty Salons,81,Other Services (except Public Administration), 
89,31458,Open, ,9/1/2020, ,3,403867414, ,23822025,42.3398,2118,-71.0735,roto-rooter plumbing & water cleanup, ,N,N,N,Y,N,403867414,238220,"Plumbing, Heating, and Air-Conditioning Contractors",23,Construction, 
93,33997,Open, ,1/28/2019, ,3,713485669, ,45331044,42.3398,2118,-71.0735,restoration resources,31 Thayer St,N,N,N,Y,N,713485669,453310,Used Merchandise Stores,45,Retail Trade, 
121,47670,Open, ,9/1/2020, ,3,244584108, ,23822025,42.3398,2118,-71.0735,o'neill daniel f co, ,N,N,N,Y,N,244584108,238220,"Plumbing, Heating, and Air-Conditioning Contractors",23,Construction, 
122,48429,Open, ,12:00:00 AM, ,3,741340161, ,54199009,42.342247,2118,-71.068538,northpoint services inc,1313 Washington St,N,Y,N,Y,Y,741340161,541990,"All Other Professional, Scientific, and Technical Services",54,"Professional, Scientific, and Technical Services",OPERATIONAL
129,54838,Open, ,7/1/2020, ,3,219582350, ,44821007,42.341858,2118,-71.069429,morgan & milo llc,46 Waltham St,N,N,N,Y,N,219582350,448210,Shoe Stores,44,Retail Trade, 
131,55782,Open, ,2/1/2021, ,3,417333020, ,54141003,42.341858,2118,-71.069429,mj berries design,46 Waltham St,N,N,N,Y,N,417333020,541410,Interior Design Services,54,"Professional, Scientific, and Technical Services", 
134,56237,Open, ,9/1/2018, ,3,721919854, ,81311008,42.340202,2118,-71.070351,ministerio mujer eres escogida,19 Monsignor Reynolds Way,N,Y,N,Y,N,721919854,813110,Religious Organizations,81,Other Services (except Public Administration), 
136,56390,Open, ,10/22/2019, ,3,740044659, ,45311001,42.3398,2118,-71.0735,mimosa fresh flower design,64 Plympton St,N,N,N,Y,N,740044659,453110,Florists,45,Retail Trade, 
152,64662,Open, ,4/22/2019, ,3,724286199, ,54199009,42.3398,2118,-71.0735,lyophilization services new,1 Sundial Ave,N,N,N,Y,N,724286199,541990,"All Other Professional, Scientific, and Technical Services",54,"Professional, Scientific, and Technical Services", 
154,65712,Open, ,4/1/2021, ,3,107284580, ,44511003,42.3398,2118,-71.0735,lord jeff's beef place,129 Newmarket Sq,N,N,N,Y,N,107284580,445110,Supermarkets and Other Grocery (except Convenience) Stores,44,Retail Trade, 
162,69945,Open, ,1/1/2013, ,3,358833713, ,45392002,42.342891,2118,-71.066057,laconia gallery,1200 Washington St,N,Y,N,Y,Y,358833713,453920,Art Dealers,45,Retail Trade,OPERATIONAL
166,72199,Open, ,4/1/2021, ,3,679649970, ,81211202,42.342098,2118,-71.068512,kent newton salon,1315 Washington St,Y,Y,Y,Y,N,679649970,812112,Beauty Salons,81,Other Services (except Public Administration), 
171,73811,Open, ,9/1/2018, ,3,730314109, ,81311021,42.339515,2118,-71.070528,just faithin it ministries,42 Harrison Archway,N,Y,N,Y,N,730314109,813110,Religious Organizations,81,Other Services (except Public Administration), 
188,83294,Open, ,3/1/2018, ,3,407683113, ,54199009,42.33845,2118,-71.074969,hood design,1597 Washington St,N,N,N,Y,N,407683113,541990,"All Other Professional, Scientific, and Technical Services",54,"Professional, Scientific, and Technical Services", 
194,86516,Open, ,4/1/2021, ,3,740967123, ,54141003,42.341858,2118,-71.069429,hark & osborne interior design llc,46 Waltham St,N,N,N,Y,N,740967123,541410,Interior Design Services,54,"Professional, Scientific, and Technical Services", 
195,86517,Open, ,4/23/2021, ,3,423682247, ,54141003,42.341858,2118,-71.069429,hark & osborne,46 Waltham St,N,N,N,Y,N,423682247,541410,Interior Design Services,54,"Professional, Scientific, and Technical Services", 
227,102245,Open, ,9/8/2020, ,3,424827957, ,54199009,42.342247,2118,-71.068538,elite services,1313 Washington St,N,N,N,Y,N,424827957,541990,"All Other Professional, Scientific, and Technical Services",54,"Professional, Scientific, and Technical Services", 
229,102494,Open, ,2/18/2021, ,3,738757714, ,81219903,42.34603,2118,-71.064091,electrology institute-new,1000 Washington St,N,N,N,Y,N,738757714,812199,Other Personal Care Services,81,Other Services (except Public Administration), 
249,113748,Open, ,2/14/2020, ,3,416913766, ,81211202,42.342247,2118,-71.068538,cor llc,1313 Washington St,N,Y,N,Y,Y,416913766,812112,Beauty Salons,81,Other Services (except Public Administration),OPERATIONAL
263,118054,Open, ,4/1/2021, ,3,403867157, ,81211302,42.342318,2118,-71.067424,city nails & spa,1260 Washington St,Y,Y,N,Y,N,403867157,812113,Nail Salons,81,Other Services (except Public Administration), 
264,118947,Open, ,9/1/2018, ,3,430584085, ,81311021,42.335563,2118,-71.078461,christ embassy boston inc,1837 Washington St,N,N,N,Y,N,430584085,813110,Religious Organizations,81,Other Services (except Public Administration), 
274,122047,Open, ,9/1/2018, ,3,431553330, ,81311021,42.3409,2118,-71.069946,cathedral outreach ministries,1400 Washington St,N,N,N,Y,N,431553330,813110,Religious Organizations,81,Other Services (except Public Administration), 
292,128430,Open, ,3/24/2021, ,3,430583616, ,71113003,42.341631,2118,-71.069613,boston urban hospitality,1375 Washington St,N,N,N,Y,N,430583616,711130,Musical Groups and Artists,71,"Arts, Entertainment, and Recreation", 
295,128713,Open, ,7/19/2019, ,3,718994451, ,53113001,42.3398,2118,-71.0735,boston tlc movers,Central St,N,N,N,Y,N,718994451,531130,Lessors of Miniwarehouses and Self-Storage Units,53,Real Estate and Rental and Leasing, 
299,130356,Open, ,11/1/2020, ,3,418314209, ,53131106,42.340056,2118,-71.071177,boston housing authority,1472 Washington St,N,Y,N,Y,N,418314209,531311,Residential Property Managers,53,Real Estate and Rental and Leasing, 
307,132392,Open, ,11/23/2020, ,3,705128062, ,45331041,42.341267,2118,-71.070389,boomerangs,1407 Washington St,N,Y,N,Y,N,705128062,453310,Used Merchandise Stores,45,Retail Trade, 
335,140199,Open, ,3/31/2021, ,3,403867424, ,23822025,42.3398,2118,-71.0735,atlantic drain service co inc, ,N,N,N,Y,N,403867424,238220,"Plumbing, Heating, and Air-Conditioning Contractors",23,Construction, 
353,146821,Open, ,3/30/2021, ,3,420347698, ,54192121,42.334154,2118,-71.079312,aiden rhaa photography,1946 Washington St,Y,Y,N,Y,N,420347698,541921,"Photography Studios, Portrait",54,"Professional, Scientific, and Technical Services", 
6,3255,Open, ,6/1/2019, ,2,564762334, ,54111002,42.339947,2118,-71.072487,william j bladd law offices,1511 Washington St,N,Y,N,Y,N,564762334,541110,Offices of Lawyers,54,"Professional, Scientific, and Technical Services", 
11,3986,Open, ,1/1/2020, ,2,747697493, ,52232008,42.336844,2118,-71.077054,western union agent location,1747 Washington St,N,Y,N,Y,N,747697493,522320,"Financial Transactions Processing, Reserve, and Clearinghouse Activities",52,Finance and Insurance, 
25,9170,Open, ,3/29/2021, ,2,434508456, ,71112002,42.34309,2118,-71.066322,urbanity dance,1180 Washington St,Y,Y,N,Y,N,434508456,711120,Dance Companies,71,"Arts, Entertainment, and Recreation", 
40,13391,Open, ,9/1/2018, ,2,718527002, ,81211101,42.335425,2118,-71.078631,top notch barbers,1855 Washington St,N,Y,N,Y,N,718527002,812111,Barber Shops,81,Other Services (except Public Administration), 
41,13392,Open, ,5/1/2018, ,2,403865168, ,81211101,42.335425,2118,-71.078631,top notch,1855 Washington St,N,Y,N,Y,Y,403865168,812111,Barber Shops,81,Other Services (except Public Administration),OPERATIONAL
42,13705,Open, ,4/1/2021, ,2,700297101, ,45399102,42.3398,2118,-71.0735,tobacco divestment project, ,N,N,N,Y,N,700297101,453991,Tobacco Stores,45,Retail Trade, 
45,14984,Open, ,4/21/2021, ,2,415391865, ,44815045,42.336366,2118,-71.077774,the wig shop,1783 Washington St,Y,Y,N,Y,N,415391865,448150,Clothing Accessories Stores,44,Retail Trade, 
58,21087,Open, ,10/24/2018, ,2,712046608, ,81211101,42.342247,2118,-71.068538,state street barbers,1313 Washington St,N,Y,N,Y,N,712046608,812111,Barber Shops,81,Other Services (except Public Administration), 
74,25863,Open, ,4/1/2021, ,2,417455618, ,45399102,42.344047,2118,-71.065448,sid's smoke,1120 Washington St,N,Y,N,Y,N,417455618,453991,Tobacco Stores,45,Retail Trade, 
85,31185,Open, ,1/1/2020, ,2,715909649, ,44511003,42.342891,2118,-71.066057,roxtar foods ltd,1200 Washington St,N,N,N,Y,N,715909649,445110,Supermarkets and Other Grocery (except Convenience) Stores,44,Retail Trade, 
148,63223,Open, ,4/28/2021, ,2,976694695, ,81391002,42.335425,2118,-71.078631,mandela residents co-op associates,1855 Washington St,N,Y,N,Y,N,976694695,813910,Business Associations,81,Other Services (except Public Administration), 
151,64424,Open, ,4/1/2021, ,2,245826664, ,44831012,42.341858,2118,-71.069429,m flynn jewelry,46 Waltham St,N,N,N,Y,N,245826664,448310,Jewelry Stores,44,Retail Trade, 
163,69946,Open, ,4/1/2021, ,2,360268098, ,53121005,42.342891,2118,-71.066057,laconia associates,1200 Washington St,N,Y,N,Y,N,360268098,531210,Offices of Real Estate Agents and Brokers,53,Real Estate and Rental and Leasing, 
164,70519,Open, ,9/1/2020, ,2,435178640, ,44512001,42.335798,2118,-71.078168,kushtia inc,1813 Washington St,N,Y,N,Y,N,435178640,445120,Convenience Stores,44,Retail Trade, 
165,71509,Open, ,4/1/2021, ,2,224430223, ,81232002,42.342247,2118,-71.068538,king's cleaners,1313 Washington St,N,N,N,Y,N,224430223,812320,Drycleaning and Laundry Services (except Coin-Operated),81,Other Services (except Public Administration), 
168,72392,Open, ,4/24/2021, ,2,719112141, ,23611506,42.342247,2118,-71.068538,ken snyder homes inc,1313 Washington St,N,N,N,Y,N,719112141,236115,New Single-Family Housing Construction (except For-Sale Builders),23,Construction, 
196,86908,Open, ,9/1/2018, ,2,725101322, ,45392002,42.342247,2118,-71.068538,hands on art,1313 Washington St,N,N,N,Y,N,725101322,453920,Art Dealers,45,Retail Trade, 
214,97558,Open, ,4/1/2017, ,2,901196634, ,81211202,42.342289,2118,-71.067444,fenny salon,1256 Washington St,Y,Y,Y,Y,N,901196634,812112,Beauty Salons,81,Other Services (except Public Administration), 
237,106405,Open, ,9/1/2020, ,2,853758811, ,44512001,42.338023,2118,-71.075053,don quijote,1641 Washington St,Y,Y,N,Y,N,853758811,445120,Convenience Stores,44,Retail Trade, 
239,107151,Open, ,4/27/2021, ,2,392626727, ,92112008,42.34603,2118,-71.064091,dispensing opticians board,1000 Washington St,N,N,N,Y,N,392626727,921120,Legislative Bodies,92,Public Administration, 
258,116591,Open, ,4/8/2021, ,2,593981327, ,72251117,42.337939,2118,-71.074712,code ten,1636 Washington St,Y,Y,N,Y,N,593981327,722511,Full-Service Restaurants,72,Accommodation and Food Services, 
261,117148,Open, ,4/1/2021, ,2,717877441, ,81232002,42.343728,2118,-71.065708,clevergreen cleaners,105 E Berkeley St,N,N,N,Y,N,717877441,812320,Drycleaning and Laundry Services (except Coin-Operated),81,Other Services (except Public Administration), 
265,119141,Open, ,10/18/2018, ,2,483761409, ,92112008,42.34603,2118,-71.064091,chiropractors board-registration,1000 Washington St,N,N,N,Y,N,483761409,921120,Legislative Bodies,92,Public Administration, 
267,120606,Open, ,3/14/2021, ,2,733392999, ,61162014,42.342368,2118,-71.067363,champions kickboxing,1250 Washington St,Y,Y,N,Y,N,733392999,611620,Sports and Recreation Instruction,61,Educational Services, 
278,123128,Open, ,7/22/2019, ,2,465584415, ,62422102,42.333798,2118,-71.079876,cardinal medeiros center for the homeless,1960 Washington St,N,Y,N,Y,N,465584415,624221,Temporary Shelters,62,Health Care and Social Assistance, 
285,126019,Open, ,3/24/2021, ,2,258922079, ,54131001,42.341858,2118,-71.069429,bruce miller architecture,46 Waltham St,N,N,N,Y,N,258922079,541310,Architectural Services,54,"Professional, Scientific, and Technical Services", 
306,132000,Open, ,4/1/2021, ,2,427312430, ,81111104,42.34435,2118,-71.066229,boston auto,1115 Washington St,N,Y,N,Y,N,427312430,811111,General Automotive Repair,81,Other Services (except Public Administration), 
308,133351,Open, ,4/1/2018, ,2,678850355, ,56162204,42.3398,2118,-71.0735,blue goose boston locksmith,515 Berkeley St,N,N,N,Y,N,678850355,561622,Locksmiths,56,Administrative Waste Management, 
310,134807,Open, ,4/1/2018, ,2,407734713, ,45231906,42.335593,2118,-71.078423,beyjund spheres record,1833 Washington St,N,N,N,Y,N,407734713,452319,All Other General Merchandise Stores,45,Retail Trade, 
312,135723,Open, ,4/4/2021, ,2,722969711, ,81211101,42.3398,2118,-71.0735,belsito barber shop,696 To 696A Tremont St,N,N,N,Y,N,722969711,812111,Barber Shops,81,Other Services (except Public Administration), 
320,137704,Open, ,9/4/2020, ,2,483761391, ,92615004,42.34603,2118,-71.064091,barbers board-registration division,1000 Washington St,N,N,N,Y,N,483761391,926150,"Regulation, Licensing, and Inspection of Miscellaneous Commercial Sectors",92,Public Administration, 
347,143225,Open, ,2/17/2021, ,2,107280935, ,81232002,42.337692,2118,-71.075746,andy's cleaners,1679 Washington St,Y,Y,N,Y,N,107280935,812320,Drycleaning and Laundry Services (except Coin-Operated),81,Other Services (except Public Administration), 
350,145001,Open, ,4/1/2021, ,2,436015832, ,54111009,42.3398,2118,-71.0735,alpha immigrant center,62 Northampton St,N,N,N,Y,N,436015832,541110,Offices of Lawyers,54,"Professional, Scientific, and Technical Services", 
352,146090,Open, ,4/18/2021, ,2,388089328, ,72251115,42.34229,2118,-71.066876,alex pizza,1252 Washington St,N,N,N,Y,N,388089328,722511,Full-Service Restaurants,72,Accommodation and Food Services, 
8,3504,Open, ,2/1/2019, ,1,433472900, ,54143006,42.341858,2118,-71.069429,whydesignworks,46 Waltham St,N,N,N,Y,N,433472900,541430,Graphic Design Services,54,"Professional, Scientific, and Technical Services", 
16,4911,Open, ,2/1/2021, ,1,948710249, ,51919007,42.3398,2118,-71.0735,wdi appraisal services, ,N,N,N,Y,N,948710249,519190,All Other Information Services,51,Information, 
17,5055,Open, ,3/17/2021, ,1,433410038, ,81111104,42.342247,2118,-71.068538,wax job,1313 Washington St,N,Y,N,Y,N,433410038,811111,General Automotive Repair,81,Other Services (except Public Administration), 
18,5311,Open, ,3/28/2021, ,1,976693648, ,81391004,42.341858,2118,-71.069429,washington gateway main street,46 Waltham St,N,N,N,Y,N,976693648,813910,Business Associations,81,Other Services (except Public Administration), 
71,24754,Open, ,8/11/2020, ,1,704942682, ,44419019,42.343086,2118,-71.065258,sliding,409 Harrison Ave,N,N,N,Y,N,704942682,444190,Other Building Material Dealers,44,Retail Trade, 
106,41269,Open, ,10/1/2020, ,1,465583581, ,81211204,42.341858,2118,-71.069429,phyto usa,46 Waltham St,N,N,N,Y,N,465583581,812112,Beauty Salons,81,Other Services (except Public Administration), 
118,46688,Open, ,9/1/2020, ,1,483800082, ,54169056,42.341858,2118,-71.069429,on inc,46 Waltham St,N,Y,N,Y,N,483800082,541690,Other Scientific and Technical Consulting Services,54,"Professional, Scientific, and Technical Services", 
160,68790,Open, ,4/24/2021, ,1,946926730, ,72251115,42.336495,2118,-71.076477,laz cafe,1744 Washington St,Y,Y,N,Y,N,946926730,722511,Full-Service Restaurants,72,Accommodation and Food Services, 
176,76956,Open, ,2/3/2021, ,1,736700596, ,54111002,42.342891,2118,-71.066057,janet bailey associates,1200 Washington St,N,N,N,Y,N,736700596,541110,Offices of Lawyers,54,"Professional, Scientific, and Technical Services", 
202,89225,Open, ,4/1/2021, ,1,107283608, ,81311008,42.334361,2118,-71.07913,grant ame church,1906 Washington St,N,Y,N,Y,N,107283608,813110,Religious Organizations,81,Other Services (except Public Administration), 
206,92824,Open, ,4/7/2021, ,1,598409233, ,42412012,42.341858,2118,-71.069429,gallardoworks,46 Waltham St,N,N,N,Y,N,598409233,424120,Stationery and Office Supplies Merchant Wholesalers,42,Wholesale Trade, 
215,97983,Open, ,4/1/2021, ,1,400103040, ,23611808,42.341858,2118,-71.069429,faucher daniel couture design,46 Waltham St,N,N,N,Y,N,400103040,236118,Residential Remodelers,23,Construction, 
217,98832,Open, ,4/1/2021, ,1,593941966, ,81211202,42.341858,2118,-71.069429,face facts,46 Waltham St,N,N,N,Y,N,593941966,812112,Beauty Salons,81,Other Services (except Public Administration), 
270,121637,Open, ,7/1/2020, ,1,433486954, ,54161830,42.34514,2118,-71.064436,ceatro group,345 Harrison Ave,N,Y,N,Y,N,433486954,541618,Other Management Consulting Services,54,"Professional, Scientific, and Technical Services", 
279,123516,Open, ,4/16/2021, ,1,740639439, ,71151033,42.342891,2118,-71.066057,canvas fine arts,1200 Washington St,N,N,N,Y,N,740639439,711510,"Independent Artists, Writers, and Performers",71,"Arts, Entertainment, and Recreation", 
332,139439,Open, ,4/1/2021, ,1,107698300, ,54192204,42.341858,2118,-71.069429,avanti studios,46 Waltham St,N,N,N,Y,N,107698300,541922,Commercial Photography,54,"Professional, Scientific, and Technical Services", 
336,140720,Open, ,10/1/2020, ,1,222118762, ,45392002,42.341858,2118,-71.069429,aspect arts inc,46 Waltham St,N,N,N,Y,N,222118762,453920,Art Dealers,45,Retail Trade, 
342,141873,Open, ,4/20/2021, ,1,483761383, ,92112008,42.34603,2118,-71.064091,architects board-registration,1000 Washington St,N,N,N,Y,N,483761383,921120,Legislative Bodies,92,Public Administration, 
344,142821,Open, ,4/18/2021, ,1,725434998, ,72251117,42.338912,2118,-71.073978,anoush'ella,35 W Newton St,Y,Y,N,Y,N,725434998,722511,Full-Service Restaurants,72,Accommodation and Food Services, 
351,145006,Open, ,3/29/2021, ,1,107257776, ,45392002,42.3398,2118,-71.0735,alpha gallery,460C Harrison Ave,N,N,N,Y,N,107257776,453920,Art Dealers,45,Retail Trade, 
20,6550,Open, ,9/11/2020, ,0,711139027, ,99999004,42.342247,2118,-71.068538,visionary steps,1313 Washington St,N,N,N,Y,N,711139027,0, ,0,UnclassIfied Business Types, 
28,9325,Open, ,4/1/2021, ,0,719239867, ,23611505,42.3398,2118,-71.0735,urban edge, ,N,N,N,Y,N,719239867,236115,New Single-Family Housing Construction (except For-Sale Builders),23,Construction, 
32,10328,Open, ,4/14/2021, ,0,758305463, ,72251117,42.341305,2118,-71.070364,union park pizza,1405 Washington St,Y,Y,N,Y,N,758305463,722511,Full-Service Restaurants,72,Accommodation and Food Services, 
37,12801,Open, ,4/1/2021, ,0,700297144, ,99999004,42.3398,2118,-71.0735,trans national group, ,N,N,N,Y,N,700297144,0, ,0,UnclassIfied Business Types, 
51,17954,Open, ,3/8/2021, ,0,734726726, ,99999004,42.3398,2118,-71.0735,systematics inc,W Springfield St,N,N,N,Y,N,734726726,0, ,0,UnclassIfied Business Types, 
60,22034,Open, ,4/9/2021, ,0,743947730, ,99999004,42.337778,2118,-71.075495,squashbusters,1661 Washington St,N,Y,N,Y,N,743947730,0, ,0,UnclassIfied Business Types, 
100,38554,Open, ,10/3/2019, ,0,729048940, ,99999004,42.3398,2118,-71.0735,privatus care solutions, ,N,N,N,Y,N,729048940,0, ,0,UnclassIfied Business Types, 
104,40103,Open, ,1/20/2021, ,0,724309403, ,99999004,42.341858,2118,-71.069429,pod digital design,46 Waltham St,N,Y,N,Y,N,724309403,0, ,0,UnclassIfied Business Types, 
111,43490,Open, ,12/3/2018, ,0,738349280, ,99999004,42.3398,2118,-71.0735,patricia busso,Studio 325 450 Harrison Ave,N,N,N,Y,N,738349280,0, ,0,UnclassIfied Business Types, 
132,56058,Open, ,3/4/2021, ,0,711122130, ,99999004,42.341858,2118,-71.069429,misc monique,46 Waltham St,N,N,N,Y,N,711122130,0, ,0,UnclassIfied Business Types, 
133,56204,Open, ,4/1/2021, ,0,735673414, ,71151033,42.3398,2118,-71.0735,minni space llc,71 Thayer St,N,N,N,Y,N,735673414,711510,"Independent Artists, Writers, and Performers",71,"Arts, Entertainment, and Recreation", 
141,60036,Open, ,10/1/2020, ,0,719572499, ,45392002,42.3398,2118,-71.0735,matter & light,63 Thayer St,N,N,N,Y,N,719572499,453920,Art Dealers,45,Retail Trade, 
149,63225,Open, ,12:00:00 AM, ,0,747549626, ,99999004,42.335425,2118,-71.078631,mandela newlife,1855 Washington St,N,Y,N,Y,Y,747549626,0, ,0,UnclassIfied Business Types,OPERATIONAL
161,69940,Open, ,11/22/2020, ,0,719445622, ,99999004,42.3398,2118,-71.0735,lacrosse studio,The N End,N,N,N,Y,N,719445622,0, ,0,UnclassIfied Business Types, 
173,75181,Open, ,9/1/2020, ,0,720474450, ,23611505,42.3398,2118,-71.0735,john moriarty & associates,1071 Washington St,N,N,N,Y,N,720474450,236115,New Single-Family Housing Construction (except For-Sale Builders),23,Construction, 
177,77336,Open, ,3/20/2021, ,0,744180379, ,99999004,42.343695,2118,-71.065706,jam-design,1140 Washington St,N,N,N,Y,N,744180379,0, ,0,UnclassIfied Business Types, 
186,81121,Open, ,11/11/2020, ,0,736565696, ,99999004,42.3398,2118,-71.0735,imagiration, ,N,N,N,Y,N,736565696,0, ,0,UnclassIfied Business Types, 
193,86403,Open, ,4/1/2021, ,0,740967125, ,53112004,42.34514,2118,-71.064436,harrison llc,345 Harrison Ave,N,N,N,Y,N,740967125,531120,Lessors of Nonresidential Buildings (except Miniwarehouses),53,Real Estate and Rental and Leasing, 
219,99570,Open, ,8/26/2020, ,0,713443914, ,99999004,42.3398,2118,-71.0735,excellent writers group,1 Herald St,N,N,N,Y,N,713443914,0, ,0,UnclassIfied Business Types, 
225,102000,Open, ,3/13/2021, ,0,718327832, ,99999004,42.342247,2118,-71.068538,elsewhere llc,1313 Washington St,N,Y,Y,Y,N,718327832,0, ,0,UnclassIfied Business Types, 
232,104607,Open, ,9/1/2020, ,0,711122433, ,44814001,42.341858,2118,-71.069429,dylanium knits,46 Waltham St,N,N,N,Y,N,711122433,448140,Family Clothing Stores,44,Retail Trade, 
241,107585,Open, ,1/1/2019, ,0,740429719, ,99999004,42.3398,2118,-71.0735,digital standard,468 Harrison Ave,N,N,N,Y,N,740429719,0, ,0,UnclassIfied Business Types, 
248,113630,Open, ,5/1/2020, ,0,745236862, ,99999004,42.34603,2118,-71.064091,coreworks llc,1000 Washington St,N,N,N,Y,N,745236862,0, ,0,UnclassIfied Business Types, 
260,116806,Open, ,7/1/2018, ,0,737407713, ,99999004,42.34603,2118,-71.064091,cmit solutions-boston,1000 Washington St,N,N,N,Y,N,737407713,0, ,0,UnclassIfied Business Types, 
262,117654,Open, ,4/1/2021, ,0,728573200, ,53112004,42.3398,2118,-71.0735,ckg shawmut llc,136 Shawmut Ave,N,N,N,Y,N,728573200,531120,Lessors of Nonresidential Buildings (except Miniwarehouses),53,Real Estate and Rental and Leasing, 
269,121574,Open, ,3/19/2019, ,0,715233844, ,99999004,42.337655,2118,-71.074928,ceeh,1640 Washington St,N,N,N,Y,N,715233844,0, ,0,UnclassIfied Business Types, 
276,122434,Open, ,4/1/2021, ,0,745750815, ,44211012,42.3398,2118,-71.0735,casa design llc,15 Thayer St,N,N,N,Y,N,745750815,442110,Furniture Stores,44,Retail Trade, 
304,130977,Open, ,9/1/2018, ,0,437104175, ,99999004,42.336172,2118,-71.078259,boston elite sports inc,1815 Washington St,N,N,N,Y,N,437104175,0, ,0,UnclassIfied Business Types, 
313,136070,Open, ,10/20/2020, ,0,736357055, ,99999004,42.34603,2118,-71.064091,becker,1000 Washington St,N,N,N,Y,N,736357055,0, ,0,UnclassIfied Business Types, 
322,137777,Open, ,3/8/2021, ,0,737982250, ,72251117,42.336431,2118,-71.076565,bar lyon,1750 Washington St,Y,Y,N,Y,N,737982250,722511,Full-Service Restaurants,72,Accommodation and Food Services, 
329,138796,Open, ,8/18/2020, ,0,729048941, ,99999004,42.3398,2118,-71.0735,b u alzheimers center, ,N,N,N,Y,N,729048941,0, ,0,UnclassIfied Business Types, 
330,139083,Open, ,4/25/2021, ,0,723314783, ,99999004,42.3398,2072,-71.0735,az pneumatica llc,1935 Washington St,N,N,N,Y,N,723314783,0, ,0,UnclassIfied Business Types, 
331,139382,Open, ,12/1/2020, ,0,736701234, ,99999004,42.342247,2118,-71.068538,avenue group,1313 Washington St,N,Y,N,Y,N,736701234,0, ,0,UnclassIfied Business Types, 
337,140746,Open, ,3/24/2020, ,0,420371230, ,99999004,42.341858,2118,-71.069429,asklabs co,46 Waltham St,N,Y,N,Y,N,420371230,0, ,0,UnclassIfied Business Types, 
339,141483,Open, ,5/1/2018, ,0,713438111, ,99999004,42.3398,2118,-71.0735,arnold worldwide,401 Matthew St,N,N,N,Y,N,713438111,0, ,0,UnclassIfied Business Types, 
357,150084,Open, ,8/17/2020, ,0,729145205, ,99999004,42.3398,2118,-71.0735,a hope boston needle exchange, ,N,N,N,Y,N,729145205,0, ,0,UnclassIfied Business Types, 
361,152293,Open, ,1/5/2020, ,0,715765847, ,99999004,42.336937,2118,-71.075881,1704 washington llc,1704 Washington St,N,N,N,Y,N,715765847,0, ,0,UnclassIfied Business Types, 
